NORAD_CAT_ID,OBJECT_NAME,OBJECT_TYPE,EPOCH,MEAN_MOTION,ECCENTRICITY,INCLINATION,RA_OF_ASC_NODE,ARG_OF_PERICENTER,MEAN_ANOMALY,BSTAR,MEAN_MOTION_DOT,MEAN_MOTION_DDOT,TLE_LINE0,TLE_LINE1,TLE_LINE2,SEMIMAJOR_AXIS,PERIOD,APOGEE,PERIGEE,DECAYED
49132.0,STARLINK-3090,PAYLOAD,2022-02-07 22:00:00,14.9831639,0.000342,70.0001,93.22,278.8362,119.5844,0.0021988,0.00026232,0.0,0 STARLINK-3090,1 49132U 21082C   22038.91667824  .00026232  00000-0  21988-2 0  9995,2 49132  70.0001  93.2200 0003420 278.8362 119.5844 14.98316390 22673,6950.235,96.108,574.477,569.7230000000002,0.0
49132.0,STARLINK-3090,PAYLOAD,2022-02-08 14:00:01,14.98299504,0.0003399,70.0002,91.539,284.084,109.3111,0.0030864,0.000369,0.0,0 STARLINK-3090,1 49132U 21082C   22039.58334491  .00036900  00000-0  30864-2 0  9996,2 49132  70.0002  91.5390 0003399 284.0840 109.3111 14.98299504 22772,6950.2869999999975,96.109,574.515,569.79,0.0
49132.0,STARLINK-3090,PAYLOAD,2022-02-08 22:00:01,14.98295114,0.0003299,70.0001,90.6987,279.4704,111.4577,0.0027425,0.00032754,0.0,0 STARLINK-3090,1 49132U 21082C   22039.91668981  .00032754  00000-0  27425-2 0  9999,2 49132  70.0001  90.6987 0003299 279.4704 111.4577 14.98295114  3580,6950.301,96.109,574.4590000000002,569.873,0.0
49132.0,STARLINK-3090,PAYLOAD,2022-02-09 06:00:00,14.98345604,0.0003359,70.0005,89.8582,279.1973,109.1176,-0.0031037,-0.00036947,0.0,0 STARLINK-3090,1 49132U 21082C   22040.25001157 -.00036947  00000-0 -31037-2 0  9998,2 49132  70.0005  89.8582 0003359 279.1973 109.1176 14.98345604 22879,6950.145,96.106,574.344,569.675,0.0
49132.0,STARLINK-3090,PAYLOAD,2022-02-09 14:00:01,14.98311731,0.0003413,70.0003,89.0176,284.2627,101.5403,0.0026867,0.00032097,0.0,0 STARLINK-3090,1 49132U 21082C   22040.58334491  .00032097  00000-0  26867-2 0  9999,2 49132  70.0003  89.0176 0003413 284.2627 101.5403 14.98311731  3605,6950.249,96.108,574.487,569.742,0.0
49132.0,STARLINK-3090,PAYLOAD,2022-02-09 22:00:00,14.98301408,0.0003333,70.0003,88.1772,279.039,104.2482,0.0033389,0.00039945,0.0,0 STARLINK-3090,1 49132U 21082C   22040.91667824  .00039945  00000-0  33389-2 0  9991,2 49132  70.0003  88.1772 0003333 279.0390 104.2482 14.98301408 22975,6950.281,96.109,574.4630000000002,569.83,0.0
49132.0,STARLINK-3090,PAYLOAD,2022-02-10 14:00:01,14.98322138,0.0003478999999999,70.0004,86.4961,283.5871,94.7197,0.0023628,0.00028208,0.0,0 STARLINK-3090,1 49132U 21082C   22041.58335648  .00028208  00000-0  23628-2 0  9996,2 49132  70.0004  86.4961 0003479 283.5871  94.7197 14.98322138 23073,6950.217,96.108,574.5,569.664,0.0
49132.0,STARLINK-3090,PAYLOAD,2022-02-10 22:00:00,14.98307439,0.0003412,70.0004,85.6557,278.3258,97.4156,0.0039824,0.00047722,0.0,0 STARLINK-3090,1 49132U 21082C   22041.91667824  .00047722  00000-0  39824-2 0  9994,2 49132  70.0004  85.6557 0003412 278.3258  97.4156 14.98307439  3567,6950.263000000001,96.108,574.499,569.756,0.0
49132.0,STARLINK-3090,PAYLOAD,2022-02-11 12:21:02,14.98342065,0.000341,69.9997,84.148,279.728,80.3494,0.00035296,4.122e-05,0.0,0 STARLINK-3090,1 49132U 21082C   22042.51460873  .00004122  00000-0  35296-3 0  9993,2 49132  69.9997  84.1480 0003410 279.7280  80.3494 14.98342065 23216,6950.156,96.106,574.391,569.651,0.0
49132.0,STARLINK-3090,PAYLOAD,2022-02-11 22:00:01,14.98329764,0.0003457,70.0004,83.1342,278.1373,90.1775,0.0029416,0.00035183,0.0,0 STARLINK-3090,1 49132U 21082C   22042.91668981  .00035183  00000-0  29416-2 0  9994,2 49132  70.0004  83.1342 0003457 278.1373  90.1775 14.98329764  3581,6950.194,96.107,574.461,569.656,0.0
49132.0,STARLINK-3090,PAYLOAD,2022-02-12 12:23:02,14.98338251,0.0003485,70.0,81.6226,280.9127,79.164,-1.4390999999999991e-05,-2.65e-06,0.0,0 STARLINK-3090,1 49132U 21082C   22043.51600153 -.00000265  00000-0 -14391-4 0  9991,2 49132  70.0000  81.6226 0003485 280.9127  79.1640 14.98338251 23367,6950.167,96.106,574.455,569.61,0.0
49132.0,STARLINK-3090,PAYLOAD,2022-02-12 22:00:00,14.98307755,0.0003334,70.0004,80.6127,278.6584,82.0768,0.0024562,0.00029321,0.0,0 STARLINK-3090,1 49132U 21082C   22043.91667824  .00029321  00000-0  24562-2 0  9994,2 49132  70.0004  80.6127 0003334 278.6584  82.0768 14.98307755  3585,6950.262,96.108,574.444,569.809,0.0
49132.0,STARLINK-3090,PAYLOAD,2022-02-13 14:00:01,14.98307379,0.0003334,70.0,78.9318,284.8928,70.7746,0.0012505,0.00014851,0.0,0 STARLINK-3090,1 49132U 21082C   22044.58334491  .00014851  00000-0  12505-2 0  9995,2 49132  70.0000  78.9318 0003334 284.8928  70.7746 14.98307379 23511,6950.263000000001,96.108,574.445,569.811,0.0
49132.0,STARLINK-3090,PAYLOAD,2022-02-14 14:00:01,14.98319309,0.0003319,69.9997,76.4104,285.858,62.1988,0.00039109,4.575e-05,0.0,0 STARLINK-3090,1 49132U 21082C   22045.58334491  .00004575  00000-0  39109-3 0  9998,2 49132  69.9997  76.4104 0003319 285.8580  62.1988 14.98319309 23662,6950.226,96.108,574.398,569.784,0.0
49132.0,STARLINK-3090,PAYLOAD,2022-02-14 22:00:00,14.98284635,0.0003198,69.9997,75.5699,279.9438,65.5969,0.0056061,0.00067366,0.0,0 STARLINK-3090,1 49132U 21082C   22045.91667824  .00067366  00000-0  56061-2 0  9996,2 49132  69.9997  75.5699 0003198 279.9438  65.5969 14.98284635  3579,6950.333000000001,96.11,574.4209999999998,569.975,0.0
49132.0,STARLINK-3090,PAYLOAD,2022-02-15 14:00:01,14.98330475,0.0003323,69.9995,73.8886,285.9836,54.4921,-0.00025391,-3.121e-05,0.0,0 STARLINK-3090,1 49132U 21082C   22046.58334491 -.00003121  00000-0 -25391-3 0  9995,2 49132  69.9995  73.8886 0003323 285.9836  54.4921 14.98330475  3563,6950.191,96.107,574.366,569.747,0.0
49132.0,STARLINK-3090,PAYLOAD,2022-02-15 22:00:01,14.98290275,0.0003222,69.9995,73.048,279.6886,58.3409,0.0057757,0.00069438,0.0,0 STARLINK-3090,1 49132U 21082C   22046.91668981  .00069438  00000-0  57757-2 0  9997,2 49132  69.9995  73.0480 0003222 279.6886  58.3409 14.98290275 23860,6950.316,96.11,574.42,569.941,0.0
49132.0,STARLINK-3090,PAYLOAD,2022-02-16 14:00:01,14.9833828,0.0003373,69.9993,71.3666,285.2431,47.6728,-0.00078809,-9.486e-05,0.0,0 STARLINK-3090,1 49132U 21082C   22047.58334491 -.00009486  00000-0 -78809-3 0  9998,2 49132  69.9993  71.3666 0003373 285.2431  47.6728 14.98338280 23966,6950.167,96.106,574.377,569.688,0.0
49132.0,STARLINK-3090,PAYLOAD,2022-02-16 22:00:00,14.98293856,0.0003355,69.9993,70.5261,280.7161,49.6521,0.0062228,0.00074886,0.0,0 STARLINK-3090,1 49132U 21082C   22047.91667824  .00074886  00000-0  62228-2 0  9995,2 49132  69.9993  70.5261 0003355 280.7161  49.6521 14.98293856 24017,6950.305,96.109,574.501,569.8380000000002,0.0
49132.0,STARLINK-3090,PAYLOAD,2022-02-17 14:00:01,14.98330657,0.0003143999999999,69.9997,68.8553,281.4163,44.0042,-0.00011542,-1.47e-05,0.0,0 STARLINK-3090,1 49132U 21082C   22048.58334491 -.00001470  00000-0 -11542-3 0  9995,2 49132  69.9997  68.8553 0003144 281.4163  44.0042 14.98330657 24110,6950.191,96.107,574.241,569.871,0.0
49132.0,STARLINK-3090,PAYLOAD,2022-02-17 22:00:00,14.98302096,0.0003453,69.9995,68.0041,280.4765,42.3639,0.0060313,0.00072571,0.0,0 STARLINK-3090,1 49132U 21082C   22048.91667824  .00072571  00000-0  60313-2 0  9998,2 49132  69.9995  68.0041 0003453 280.4765  42.3639 14.98302096 24166,6950.279,96.109,574.544,569.744,0.0
49132.0,STARLINK-3090,PAYLOAD,2022-02-18 14:00:01,14.98356325,0.0003567,69.9995,66.3228,286.1211,31.7011,-0.0017692,-0.00021155,0.0,0 STARLINK-3090,1 49132U 21082C   22049.58334491 -.00021155  00000-0 -17692-2 0  9999,2 49132  69.9995  66.3228 0003567 286.1211  31.7011 14.98356325 24260,6950.111,96.105,574.456,569.497,0.0
49132.0,STARLINK-3090,PAYLOAD,2022-02-18 22:00:00,14.98310343,0.0003487,69.9997,65.4823,280.8064,34.5302,0.0059663999999999,0.00071796,0.0,0 STARLINK-3090,1 49132U 21082C   22049.91667824  .00071796  00000-0  59664-2 0  9994,2 49132  69.9997  65.4823 0003487 280.8064  34.5302 14.98310343  3565,6950.254,96.108,574.5419999999998,569.695,0.0
49132.0,STARLINK-3090,PAYLOAD,2022-02-19 06:00:00,14.98358809,0.0003565,70.0,64.6418,283.7476,29.082,-0.002046,-0.0002444,0.0,0 STARLINK-3090,1 49132U 21082C   22050.25001157 -.00024440  00000-0 -20460-2 0  9992,2 49132  70.0000  64.6418 0003565 283.7476  29.0820 14.98358809 24364,6950.104,96.105,574.447,569.491,0.0
49132.0,STARLINK-3090,PAYLOAD,2022-02-19 14:00:01,14.98362765,0.0003553,69.9996,63.8038,286.5825,23.7469,-0.0023738,-0.00028328,0.0,0 STARLINK-3090,1 49132U 21082C   22050.58334491 -.00028328  00000-0 -23738-2 0  9998,2 49132  69.9996  63.8038 0003553 286.5825  23.7469 14.98362765  3565,6950.092,96.105,574.4259999999998,569.487,0.0
49132.0,STARLINK-3090,PAYLOAD,2022-02-19 22:00:00,14.98328363,0.0003422,70.0,62.9608,281.4782,26.3742,0.0030118,0.00036028,0.0,0 STARLINK-3090,1 49132U 21082C   22050.91667824  .00036028  00000-0  30118-2 0  9998,2 49132  70.0000  62.9608 0003422 281.4782  26.3742 14.98328363 24469,6950.198,96.107,574.441,569.685,0.0
49132.0,STARLINK-3090,PAYLOAD,2022-02-20 14:00:01,14.98347978,0.0003415,70.0,61.2797,287.9808,14.8547,-0.0029683,-0.0003535,0.0,0 STARLINK-3090,1 49132U 21082C   22051.58334491 -.00035350  00000-0 -29683-2 0  9997,2 49132  70.0000  61.2797 0003415 287.9808  14.8547 14.98347978 24561,6950.137,96.106,574.376,569.629,0.0
49132.0,STARLINK-3090,PAYLOAD,2022-02-20 22:00:00,14.982973199999998,0.0003302,70.0001,60.4394,282.3195,18.0089,0.0051372,0.00061695,0.0,0 STARLINK-3090,1 49132U 21082C   22051.91667824  .00061695  00000-0  51372-2 0  9992,2 49132  70.0001  60.4394 0003302 282.3195  18.0089 14.98297320  3579,6950.294,96.109,574.4540000000002,569.864,0.0
49132.0,STARLINK-3090,PAYLOAD,2022-02-21 06:00:00,14.98336847,0.0003399,70.0006,59.5987,286.0663,11.7409,-0.0011952,-0.00014328,0.0,0 STARLINK-3090,1 49132U 21082C   22052.25001157 -.00014328  00000-0 -11952-2 0  9994,2 49132  70.0006  59.5987 0003399 286.0663  11.7409 14.98336847 24665,6950.172,96.107,574.399,569.674,0.0
